{
  "type": "FeatureCollection",
  "name": "rijeka-drava",
  "crs": {
    "type": "name",
    "properties": {
      "name": "urn:ogc:def:crs:OGC:1.3:CRS84"
    }
  },
  "features": [
    {
      "type": "Feature",
      "properties": {
        "tip": "vodotok",
        "naziv": "Drava",
        "sifra": "rijeka-drava",
        "poredak": 1
      },
      "geometry": {
        "type": "LineString",
        "coordinates": [
          [
            14.939382,
            46.651801
          ],
          [
            14.958507,
            46.639024
          ],
          [
            14.983409,
            46.611599
          ],
          [
            14.99879,
            46.601426
          ],
          [
            15.018809,
            46.598741
          ],
          [
            15.065929,
            46.611029
          ],
          [
            15.088878,
            46.614773
          ],
          [
            15.110037,
            46.613145
          ],
          [
            15.129649,
            46.607774
          ],
          [
            15.148204,
            46.60578
          ],
          [
            15.185476,
            46.617947
          ],
          [
            15.204356,
            46.614773
          ],
          [
            15.224783,
            46.606716
          ],
          [
            15.246837,
            46.600938
          ],
          [
            15.274181,
            46.598578
          ],
          [
            15.341563,
            46.598944
          ],
          [
            15.371837,
            46.596218
          ],
          [
            15.394705,
            46.590359
          ],
          [
            15.421886,
            46.579413
          ],
          [
            15.43336,
            46.582872
          ],
          [
            15.442393,
            46.583035
          ],
          [
            15.454031,
            46.555772
          ],
          [
            15.46575,
            46.546902
          ],
          [
            15.483572,
            46.547431
          ],
          [
            15.533946,
            46.565009
          ],
          [
            15.570079,
            46.572333
          ],
          [
            15.603689,
            46.574246
          ],
          [
            15.675059,
            46.562771
          ],
          [
            15.700206,
            46.555243
          ],
          [
            15.712657,
            46.539984
          ],
          [
            15.718272,
            46.521918
          ],
          [
            15.726573,
            46.507636
          ],
          [
            15.743419,
            46.496934
          ],
          [
            15.799571,
            46.475613
          ],
          [
            15.828868,
            46.454535
          ],
          [
            15.851003,
            46.438422
          ],
          [
            15.920339,
            46.398546
          ],
          [
            15.942312,
            46.382595
          ],
          [
            15.967214,
            46.378241
          ],
          [
            16.048513,
            46.397976
          ],
          [
            16.072683,
            46.397406
          ],
          [
            16.085867,
            46.391872
          ],
          [
            16.09962,
            46.390489
          ],
          [
            16.11378,
            46.394884
          ],
          [
            16.127696,
            46.403184
          ],
          [
            16.14446,
            46.40705
          ],
          [
            16.192393,
            46.391913
          ],
          [
            16.25115,
            46.390489
          ],
          [
            16.266612,
            46.385281
          ],
          [
            16.279552,
            46.37877
          ],
          [
            16.281668,
            46.378119
          ],
          [
            16.298106,
            46.370185
          ],
          [
            16.318289,
            46.36872
          ],
          [
            16.324962,
            46.365546
          ],
          [
            16.330251,
            46.361843
          ],
          [
            16.340994,
            46.351915
          ],
          [
            16.342784,
            46.348904
          ],
          [
            16.343272,
            46.346869
          ],
          [
            16.343761,
            46.343533
          ],
          [
            16.3449,
            46.338975
          ],
          [
            16.346853,
            46.334174
          ],
          [
            16.351736,
            46.32628
          ],
          [
            16.355886,
            46.322781
          ],
          [
            16.358816,
            46.320624
          ],
          [
            16.361257,
            46.319932
          ],
          [
            16.483897,
            46.301785
          ],
          [
            16.516124,
            46.301459
          ],
          [
            16.585623,
            46.316759
          ],
          [
            16.595144,
            46.317939
          ],
          [
            16.605642,
            46.315863
          ],
          [
            16.72047,
            46.311387
          ],
          [
            16.766368,
            46.320909
          ],
          [
            16.855479,
            46.315782
          ],
          [
            16.87794,
            46.314073
          ],
          [
            16.888682,
            46.292426
          ],
          [
            16.895437,
            46.286566
          ],
          [
            16.902843,
            46.282172
          ],
          [
            16.940196,
            46.251776
          ],
          [
            16.964773,
            46.219753
          ],
          [
            16.974294,
            46.210801
          ],
          [
            17.027517,
            46.180732
          ],
          [
            17.035818,
            46.173285
          ],
          [
            17.040782,
            46.162421
          ],
          [
            17.052257,
            46.153754
          ],
          [
            17.100597,
            46.128485
          ],
          [
            17.115733,
            46.123358
          ],
          [
            17.196788,
            46.121405
          ],
          [
            17.208018,
            46.116807
          ],
          [
            17.247976,
            46.08043
          ],
          [
            17.253591,
            46.071112
          ],
          [
            17.266124,
            46.039008
          ],
          [
            17.268565,
            46.028917
          ],
          [
            17.275401,
            46.012274
          ],
          [
            17.291026,
            46.008124
          ],
          [
            17.30714,
            46.006659
          ],
          [
            17.316335,
            45.997911
          ],
          [
            17.308767,
            45.996934
          ],
          [
            17.296397,
            45.992947
          ],
          [
            17.289561,
            45.991726
          ],
          [
            17.289561,
            45.984931
          ],
          [
            17.304373,
            45.981269
          ],
          [
            17.316173,
            45.974066
          ],
          [
            17.326671,
            45.972276
          ],
          [
            17.337413,
            45.984931
          ],
          [
            17.343191,
            45.9678
          ],
          [
            17.341563,
            45.958848
          ],
          [
            17.3449,
            45.955919
          ],
          [
            17.364675,
            45.956895
          ],
          [
            17.388682,
            45.963324
          ],
          [
            17.399181,
            45.96015
          ],
          [
            17.405691,
            45.943915
          ],
          [
            17.411062,
            45.946845
          ],
          [
            17.414806,
            45.949897
          ],
          [
            17.417654,
            45.953233
          ],
          [
            17.426199,
            45.956895
          ],
          [
            17.511485,
            45.954169
          ],
          [
            17.553884,
            45.948065
          ],
          [
            17.59075,
            45.936469
          ],
          [
            17.63795,
            45.901557
          ],
          [
            17.645274,
            45.892117
          ],
          [
            17.646414,
            45.883979
          ],
          [
            17.651622,
            45.869086
          ],
          [
            17.652761,
            45.857611
          ],
          [
            17.656016,
            45.845649
          ],
          [
            17.664073,
            45.841864
          ],
          [
            17.686778,
            45.840888
          ],
          [
            17.808604,
            45.814643
          ],
          [
            17.837657,
            45.799872
          ],
          [
            17.857432,
            45.776068
          ],
          [
            17.857595,
            45.771999
          ],
          [
            17.869395,
            45.773749
          ],
          [
            17.875173,
            45.780951
          ],
          [
            17.880056,
            45.788764
          ],
          [
            17.889171,
            45.792426
          ],
          [
            17.974864,
            45.792426
          ],
          [
            18.079845,
            45.771918
          ],
          [
            18.091563,
            45.771999
          ],
          [
            18.102468,
            45.774848
          ],
          [
            18.11964,
            45.783718
          ],
          [
            18.128429,
            45.785671
          ],
          [
            18.210704,
            45.785671
          ],
          [
            18.229259,
            45.781521
          ],
          [
            18.26002,
            45.765448
          ],
          [
            18.282725,
            45.765163
          ],
          [
            18.292491,
            45.747504
          ],
          [
            18.306895,
            45.735663
          ],
          [
            18.32488,
            45.728339
          ],
          [
            18.350027,
            45.72366
          ],
          [
            18.368337,
            45.724189
          ],
          [
            18.376394,
            45.721991
          ],
          [
            18.384451,
            45.709906
          ],
          [
            18.392589,
            45.703721
          ],
          [
            18.409109,
            45.698106
          ],
          [
            18.423106,
            45.696723
          ],
          [
            18.447765,
            45.696845
          ],
          [
            18.481944,
            45.692328
          ],
          [
            18.493175,
            45.684272
          ],
          [
            18.48878,
            45.668972
          ],
          [
            18.506033,
            45.669379
          ],
          [
            18.516775,
            45.662665
          ],
          [
            18.525401,
            45.652411
          ],
          [
            18.536632,
            45.642279
          ],
          [
            18.549246,
            45.637763
          ],
          [
            18.57838,
            45.633979
          ],
          [
            18.591807,
            45.627997
          ],
          [
            18.601492,
            45.617987
          ],
          [
            18.614513,
            45.597032
          ],
          [
            18.625987,
            45.586982
          ],
          [
            18.64031,
            45.580593
          ],
          [
            18.77296,
            45.555203
          ],
          [
            18.927501,
            45.552843
          ]
        ]
      }
    },
    {
      "type": "Feature",
      "properties": {
        "tip": "rkm",
        "rkm": 0,
        "oznaka": "rkm 0"
      },
      "geometry": {
        "type": "Point",
        "coordinates": [
          18.927501,
          45.552843
        ]
      }
    },
    {
      "type": "Feature",
      "properties": {
        "tip": "rkm",
        "rkm": 10,
        "oznaka": "rkm 10"
      },
      "geometry": {
        "type": "Point",
        "coordinates": [
          18.811691,
          45.554612
        ]
      }
    },
    {
      "type": "Feature",
      "properties": {
        "tip": "rkm",
        "rkm": 20,
        "oznaka": "rkm 20"
      },
      "geometry": {
        "type": "Point",
        "coordinates": [
          18.698574,
          45.569441
        ]
      }
    },
    {
      "type": "Feature",
      "properties": {
        "tip": "rkm",
        "rkm": 30,
        "oznaka": "rkm 30"
      },
      "geometry": {
        "type": "Point",
        "coordinates": [
          18.606491,
          45.609942
        ]
      }
    },
    {
      "type": "Feature",
      "properties": {
        "tip": "rkm",
        "rkm": 40,
        "oznaka": "rkm 40"
      },
      "geometry": {
        "type": "Point",
        "coordinates": [
          18.521284,
          45.657305
        ]
      }
    },
    {
      "type": "Feature",
      "properties": {
        "tip": "rkm",
        "rkm": 50,
        "oznaka": "rkm 50"
      },
      "geometry": {
        "type": "Point",
        "coordinates": [
          18.445455,
          45.696834
        ]
      }
    },
    {
      "type": "Feature",
      "properties": {
        "tip": "rkm",
        "rkm": 60,
        "oznaka": "rkm 60"
      },
      "geometry": {
        "type": "Point",
        "coordinates": [
          18.346931,
          45.724236
        ]
      }
    },
    {
      "type": "Feature",
      "properties": {
        "tip": "rkm",
        "rkm": 70,
        "oznaka": "rkm 70"
      },
      "geometry": {
        "type": "Point",
        "coordinates": [
          18.259623,
          45.765655
        ]
      }
    },
    {
      "type": "Feature",
      "properties": {
        "tip": "rkm",
        "rkm": 80,
        "oznaka": "rkm 80"
      },
      "geometry": {
        "type": "Point",
        "coordinates": [
          18.15182,
          45.785671
        ]
      }
    },
    {
      "type": "Feature",
      "properties": {
        "tip": "rkm",
        "rkm": 90,
        "oznaka": "rkm 90"
      },
      "geometry": {
        "type": "Point",
        "coordinates": [
          18.042329,
          45.779247
        ]
      }
    },
    {
      "type": "Feature",
      "properties": {
        "tip": "rkm",
        "rkm": 100,
        "oznaka": "rkm 100"
      },
      "geometry": {
        "type": "Point",
        "coordinates": [
          17.928607,
          45.792426
        ]
      }
    },
    {
      "type": "Feature",
      "properties": {
        "tip": "rkm",
        "rkm": 110,
        "oznaka": "rkm 110"
      },
      "geometry": {
        "type": "Point",
        "coordinates": [
          17.845197,
          45.790796
        ]
      }
    },
    {
      "type": "Feature",
      "properties": {
        "tip": "rkm",
        "rkm": 120,
        "oznaka": "rkm 120"
      },
      "geometry": {
        "type": "Point",
        "coordinates": [
          17.746141,
          45.828099
        ]
      }
    },
    {
      "type": "Feature",
      "properties": {
        "tip": "rkm",
        "rkm": 130,
        "oznaka": "rkm 130"
      },
      "geometry": {
        "type": "Point",
        "coordinates": [
          17.652462,
          45.860628
        ]
      }
    },
    {
      "type": "Feature",
      "properties": {
        "tip": "rkm",
        "rkm": 140,
        "oznaka": "rkm 140"
      },
      "geometry": {
        "type": "Point",
        "coordinates": [
          17.60013,
          45.929531
        ]
      }
    },
    {
      "type": "Feature",
      "properties": {
        "tip": "rkm",
        "rkm": 150,
        "oznaka": "rkm 150"
      },
      "geometry": {
        "type": "Point",
        "coordinates": [
          17.492305,
          45.954782
        ]
      }
    },
    {
      "type": "Feature",
      "properties": {
        "tip": "rkm",
        "rkm": 160,
        "oznaka": "rkm 160"
      },
      "geometry": {
        "type": "Point",
        "coordinates": [
          17.399708,
          45.958836
        ]
      }
    },
    {
      "type": "Feature",
      "properties": {
        "tip": "rkm",
        "rkm": 170,
        "oznaka": "rkm 170"
      },
      "geometry": {
        "type": "Point",
        "coordinates": [
          17.33027,
          45.976516
        ]
      }
    },
    {
      "type": "Feature",
      "properties": {
        "tip": "rkm",
        "rkm": 180,
        "oznaka": "rkm 180"
      },
      "geometry": {
        "type": "Point",
        "coordinates": [
          17.293595,
          46.00789
        ]
      }
    },
    {
      "type": "Feature",
      "properties": {
        "tip": "rkm",
        "rkm": 190,
        "oznaka": "rkm 190"
      },
      "geometry": {
        "type": "Point",
        "coordinates": [
          17.249757,
          46.077474
        ]
      }
    },
    {
      "type": "Feature",
      "properties": {
        "tip": "rkm",
        "rkm": 200,
        "oznaka": "rkm 200"
      },
      "geometry": {
        "type": "Point",
        "coordinates": [
          17.163421,
          46.122209
        ]
      }
    },
    {
      "type": "Feature",
      "properties": {
        "tip": "rkm",
        "rkm": 210,
        "oznaka": "rkm 210"
      },
      "geometry": {
        "type": "Point",
        "coordinates": [
          17.058701,
          46.150386
        ]
      }
    },
    {
      "type": "Feature",
      "properties": {
        "tip": "rkm",
        "rkm": 220,
        "oznaka": "rkm 220"
      },
      "geometry": {
        "type": "Point",
        "coordinates": [
          16.979437,
          46.207895
        ]
      }
    },
    {
      "type": "Feature",
      "properties": {
        "tip": "rkm",
        "rkm": 230,
        "oznaka": "rkm 230"
      },
      "geometry": {
        "type": "Point",
        "coordinates": [
          16.912898,
          46.27399
        ]
      }
    },
    {
      "type": "Feature",
      "properties": {
        "tip": "rkm",
        "rkm": 240,
        "oznaka": "rkm 240"
      },
      "geometry": {
        "type": "Point",
        "coordinates": [
          16.826993,
          46.317421
        ]
      }
    },
    {
      "type": "Feature",
      "properties": {
        "tip": "rkm",
        "rkm": 260,
        "oznaka": "rkm 260"
      },
      "geometry": {
        "type": "Point",
        "coordinates": [
          16.580573,
          46.315647
        ]
      }
    },
    {
      "type": "Feature",
      "properties": {
        "tip": "rkm",
        "rkm": 280,
        "oznaka": "rkm 280"
      },
      "geometry": {
        "type": "Point",
        "coordinates": [
          16.347465,
          46.333185
        ]
      }
    },
    {
      "type": "Feature",
      "properties": {
        "tip": "rkm",
        "rkm": 300,
        "oznaka": "rkm 300"
      },
      "geometry": {
        "type": "Point",
        "coordinates": [
          16.143595,
          46.406851
        ]
      }
    },
    {
      "type": "Feature",
      "properties": {
        "tip": "rkm",
        "rkm": 320,
        "oznaka": "rkm 320"
      },
      "geometry": {
        "type": "Point",
        "coordinates": [
          15.918783,
          46.399441
        ]
      }
    },
    {
      "type": "Feature",
      "properties": {
        "tip": "rkm",
        "rkm": 340,
        "oznaka": "rkm 340"
      },
      "geometry": {
        "type": "Point",
        "coordinates": [
          15.726417,
          46.507904
        ]
      }
    },
    {
      "type": "Feature",
      "properties": {
        "tip": "rkm",
        "rkm": 360,
        "oznaka": "rkm 360"
      },
      "geometry": {
        "type": "Point",
        "coordinates": [
          15.53,
          46.563632
        ]
      }
    },
    {
      "type": "Feature",
      "properties": {
        "tip": "rkm",
        "rkm": 380,
        "oznaka": "rkm 380"
      },
      "geometry": {
        "type": "Point",
        "coordinates": [
          15.327378,
          46.598867
        ]
      }
    },
    {
      "type": "Feature",
      "properties": {
        "tip": "rkm",
        "rkm": 400,
        "oznaka": "rkm 400"
      },
      "geometry": {
        "type": "Point",
        "coordinates": [
          15.087712,
          46.614583
        ]
      }
    }
  ]
}