{
  "type": "FeatureCollection",
  "name": "rijeka-dunav",
  "crs": {
    "type": "name",
    "properties": {
      "name": "urn:ogc:def:crs:OGC:1.3:CRS84"
    }
  },
  "features": [
    {
      "type": "Feature",
      "properties": {
        "tip": "vodotok",
        "naziv": "Dunav",
        "sifra": "rijeka-dunav",
        "poredak": 1
      },
      "geometry": {
        "type": "LineString",
        "coordinates": [
          [
            12.5088,
            48.927598
          ],
          [
            12.513438,
            48.919745
          ],
          [
            12.52532,
            48.918891
          ],
          [
            12.539724,
            48.920844
          ],
          [
            12.553722,
            48.91767
          ],
          [
            12.540782,
            48.910834
          ],
          [
            12.540782,
            48.903998
          ],
          [
            12.553966,
            48.901638
          ],
          [
            12.575369,
            48.890163
          ],
          [
            12.584727,
            48.893419
          ],
          [
            12.592947,
            48.899115
          ],
          [
            12.616954,
            48.909044
          ],
          [
            12.625743,
            48.910834
          ],
          [
            12.654307,
            48.909125
          ],
          [
            12.677908,
            48.904731
          ],
          [
            12.74822,
            48.87991
          ],
          [
            12.752371,
            48.873236
          ],
          [
            12.75408,
            48.864325
          ],
          [
            12.758474,
            48.851833
          ],
          [
            12.764171,
            48.840522
          ],
          [
            12.770193,
            48.83572
          ],
          [
            12.783214,
            48.834296
          ],
          [
            12.80714,
            48.828559
          ],
          [
            12.8213,
            48.828233
          ],
          [
            12.833018,
            48.831081
          ],
          [
            12.862234,
            48.849392
          ],
          [
            12.874685,
            48.844672
          ],
          [
            12.911306,
            48.845649
          ],
          [
            12.917003,
            48.842312
          ],
          [
            12.955007,
            48.83572
          ],
          [
            12.972585,
            48.826483
          ],
          [
            13.016775,
            48.782538
          ],
          [
            13.027354,
            48.767401
          ],
          [
            13.030284,
            48.760565
          ],
          [
            13.032888,
            48.751247
          ],
          [
            13.029959,
            48.742987
          ],
          [
            13.016856,
            48.739529
          ],
          [
            13.005382,
            48.734565
          ],
          [
            13.010671,
            48.724921
          ],
          [
            13.021414,
            48.718288
          ],
          [
            13.027354,
            48.722439
          ],
          [
            13.037527,
            48.732123
          ],
          [
            13.060069,
            48.728461
          ],
          [
            13.083263,
            48.719184
          ],
          [
            13.095632,
            48.712185
          ],
          [
            13.086192,
            48.706366
          ],
          [
            13.08196,
            48.704698
          ],
          [
            13.09075,
            48.695258
          ],
          [
            13.111501,
            48.684149
          ],
          [
            13.115489,
            48.674343
          ],
          [
            13.167247,
            48.650092
          ],
          [
            13.190684,
            48.644477
          ],
          [
            13.235037,
            48.617987
          ],
          [
            13.259532,
            48.609158
          ],
          [
            13.318126,
            48.609158
          ],
          [
            13.379893,
            48.601671
          ],
          [
            13.388845,
            48.598904
          ],
          [
            13.413259,
            48.585761
          ],
          [
            13.424571,
            48.581855
          ],
          [
            13.486583,
            48.581855
          ],
          [
            13.520193,
            48.584825
          ],
          [
            13.62379,
            48.565619
          ],
          [
            13.641124,
            48.559353
          ],
          [
            13.657644,
            48.551337
          ],
          [
            13.672862,
            48.535712
          ],
          [
            13.726248,
            48.519802
          ],
          [
            13.746104,
            48.50906
          ],
          [
            13.801199,
            48.467882
          ],
          [
            13.823985,
            48.461249
          ],
          [
            13.871593,
            48.458767
          ],
          [
            13.894542,
            48.45185
          ],
          [
            13.941335,
            48.427354
          ],
          [
            13.958507,
            48.423448
          ],
          [
            13.986746,
            48.42414
          ],
          [
            13.999929,
            48.421739
          ],
          [
            14.010997,
            48.412869
          ],
          [
            14.018565,
            48.395697
          ],
          [
            14.027843,
            48.355658
          ],
          [
            14.037527,
            48.338487
          ],
          [
            14.049083,
            48.32921
          ],
          [
            14.062429,
            48.324774
          ],
          [
            14.09669,
            48.321723
          ],
          [
            14.11671,
            48.322943
          ],
          [
            14.152029,
            48.332953
          ],
          [
            14.168224,
            48.335395
          ],
          [
            14.240489,
            48.315985
          ],
          [
            14.278005,
            48.311469
          ],
          [
            14.307791,
            48.327948
          ],
          [
            14.319265,
            48.320909
          ],
          [
            14.333995,
            48.302558
          ],
          [
            14.342703,
            48.293809
          ],
          [
            14.37322,
            48.281521
          ],
          [
            14.395925,
            48.266303
          ],
          [
            14.4428,
            48.248887
          ],
          [
            14.459239,
            48.245429
          ],
          [
            14.564871,
            48.244086
          ],
          [
            14.582042,
            48.240058
          ],
          [
            14.597097,
            48.2331
          ],
          [
            14.610118,
            48.223334
          ],
          [
            14.63738,
            48.196967
          ],
          [
            14.65447,
            48.18655
          ],
          [
            14.675304,
            48.182318
          ],
          [
            14.818533,
            48.205512
          ],
          [
            14.832286,
            48.21308
          ],
          [
            14.846934,
            48.227362
          ],
          [
            14.861827,
            48.236884
          ],
          [
            14.879893,
            48.242214
          ],
          [
            14.929373,
            48.243842
          ],
          [
            14.94044,
            48.241889
          ],
          [
            14.952647,
            48.236925
          ],
          [
            14.987804,
            48.209093
          ],
          [
            15.003917,
            48.205105
          ],
          [
            15.027761,
            48.204169
          ],
          [
            15.051199,
            48.200019
          ],
          [
            15.060557,
            48.196234
          ],
          [
            15.078868,
            48.186103
          ],
          [
            15.087657,
            48.183132
          ],
          [
            15.104259,
            48.186794
          ],
          [
            15.133718,
            48.211982
          ],
          [
            15.15504,
            48.218085
          ],
          [
            15.240733,
            48.225531
          ],
          [
            15.323741,
            48.244005
          ],
          [
            15.356456,
            48.25849
          ],
          [
            15.384044,
            48.280788
          ],
          [
            15.397878,
            48.306708
          ],
          [
            15.41212,
            48.366238
          ],
          [
            15.42921,
            48.388048
          ],
          [
            15.467052,
            48.413153
          ],
          [
            15.489431,
            48.423407
          ],
          [
            15.508718,
            48.424384
          ],
          [
            15.512625,
            48.42182
          ],
          [
            15.519542,
            48.41531
          ],
          [
            15.524669,
            48.414008
          ],
          [
            15.608409,
            48.427191
          ],
          [
            15.639578,
            48.425645
          ],
          [
            15.673839,
            48.419867
          ],
          [
            15.710134,
            48.417792
          ],
          [
            15.723806,
            48.415229
          ],
          [
            15.751231,
            48.404731
          ],
          [
            15.763113,
            48.402899
          ],
          [
            15.811209,
            48.409003
          ],
          [
            15.833995,
            48.408759
          ],
          [
            15.856375,
            48.404364
          ],
          [
            15.876882,
            48.395046
          ],
          [
            15.911794,
            48.372382
          ],
          [
            15.94573,
            48.363389
          ],
          [
            16.094168,
            48.35932
          ],
          [
            16.208914,
            48.369818
          ],
          [
            16.22047,
            48.372504
          ],
          [
            16.243175,
            48.380968
          ],
          [
            16.254893,
            48.383734
          ],
          [
            16.28297,
            48.386013
          ],
          [
            16.297374,
            48.385037
          ],
          [
            16.31072,
            48.381659
          ],
          [
            16.321056,
            48.374864
          ],
          [
            16.352061,
            48.329617
          ],
          [
            16.371593,
            48.280788
          ],
          [
            16.393321,
            48.250759
          ],
          [
            16.418712,
            48.227322
          ],
          [
            16.487071,
            48.184638
          ],
          [
            16.549571,
            48.155056
          ],
          [
            16.586436,
            48.143256
          ],
          [
            16.749685,
            48.128974
          ],
          [
            16.864675,
            48.136908
          ],
          [
            16.914073,
            48.155341
          ],
          [
            16.922862,
            48.156684
          ],
          [
            16.941824,
            48.155585
          ],
          [
            16.947032,
            48.156684
          ],
          [
            16.950694,
            48.160712
          ],
          [
            16.960704,
            48.177191
          ],
          [
            16.987559,
            48.177354
          ],
          [
            17.010265,
            48.166531
          ],
          [
            17.031993,
            48.152615
          ],
          [
            17.056326,
            48.143622
          ],
          [
            17.132742,
            48.144802
          ],
          [
            17.151866,
            48.136176
          ],
          [
            17.146169,
            48.107978
          ],
          [
            17.157888,
            48.08572
          ],
          [
            17.180186,
            48.069851
          ],
          [
            17.206472,
            48.061103
          ],
          [
            17.242931,
            48.041327
          ],
          [
            17.256521,
            48.028103
          ],
          [
            17.261729,
            48.009304
          ],
          [
            17.272227,
            48.005561
          ],
          [
            17.337413,
            47.998969
          ],
          [
            17.36907,
            47.981472
          ],
          [
            17.471446,
            47.889106
          ],
          [
            17.481456,
            47.882921
          ],
          [
            17.49171,
            47.880072
          ],
          [
            17.516856,
            47.876532
          ],
          [
            17.526134,
            47.872382
          ],
          [
            17.559825,
            47.838243
          ],
          [
            17.572032,
            47.829779
          ],
          [
            17.582449,
            47.830024
          ],
          [
            17.59254,
            47.833441
          ],
          [
            17.60377,
            47.834499
          ],
          [
            17.618582,
            47.829535
          ],
          [
            17.639415,
            47.819444
          ],
          [
            17.657888,
            47.807563
          ],
          [
            17.665782,
            47.797309
          ],
          [
            17.676036,
            47.789415
          ],
          [
            17.741466,
            47.765652
          ],
          [
            17.825206,
            47.750271
          ],
          [
            18.112234,
            47.762722
          ],
          [
            18.235362,
            47.754177
          ],
          [
            18.272472,
            47.756456
          ],
          [
            18.347341,
            47.776964
          ],
          [
            18.552013,
            47.793158
          ],
          [
            18.596934,
            47.79088
          ],
          [
            18.633311,
            47.780097
          ],
          [
            18.663097,
            47.77619
          ],
          [
            18.692393,
            47.778184
          ],
          [
            18.716726,
            47.788357
          ],
          [
            18.749766,
            47.813829
          ],
          [
            18.7671,
            47.822577
          ],
          [
            18.789806,
            47.826606
          ],
          [
            18.882253,
            47.825954
          ],
          [
            18.898123,
            47.823798
          ],
          [
            18.911143,
            47.819607
          ],
          [
            18.915294,
            47.815863
          ],
          [
            18.922781,
            47.805976
          ],
          [
            18.927908,
            47.802802
          ],
          [
            18.948497,
            47.803087
          ],
          [
            19.013845,
            47.828966
          ],
          [
            19.039073,
            47.83043
          ],
          [
            19.063243,
            47.826483
          ],
          [
            19.085948,
            47.817206
          ],
          [
            19.106863,
            47.802843
          ],
          [
            19.123057,
            47.775458
          ],
          [
            19.128347,
            47.736396
          ],
          [
            19.124034,
            47.693427
          ],
          [
            19.11199,
            47.65412
          ],
          [
            19.054454,
            47.540391
          ],
          [
            19.050548,
            47.506171
          ],
          [
            19.053722,
            47.49669
          ],
          [
            19.062266,
            47.485419
          ],
          [
            19.06422,
            47.478217
          ],
          [
            19.062266,
            47.468451
          ],
          [
            19.052745,
            47.454047
          ],
          [
            19.050548,
            47.447821
          ],
          [
            19.046804,
            47.425564
          ],
          [
            19.036388,
            47.412543
          ],
          [
            19.002126,
            47.396308
          ],
          [
            18.974376,
            47.379462
          ],
          [
            18.952566,
            47.357001
          ],
          [
            18.934988,
            47.328477
          ],
          [
            18.920177,
            47.29328
          ],
          [
            18.907644,
            47.237494
          ],
          [
            18.886974,
            47.208197
          ],
          [
            18.881358,
            47.189643
          ],
          [
            18.878917,
            47.169013
          ],
          [
            18.879161,
            47.149237
          ],
          [
            18.889171,
            47.110419
          ],
          [
            18.896902,
            47.090277
          ],
          [
            18.903087,
            47.08161
          ],
          [
            18.918712,
            47.074042
          ],
          [
            18.968028,
            47.03323
          ],
          [
            18.966726,
            47.023749
          ],
          [
            18.962087,
            47.017198
          ],
          [
            18.95696,
            47.011746
          ],
          [
            18.954356,
            47.005316
          ],
          [
            18.955089,
            46.994737
          ],
          [
            18.96046,
            46.977484
          ],
          [
            18.96697,
            46.935858
          ],
          [
            18.966563,
            46.917304
          ],
          [
            18.958018,
            46.909044
          ],
          [
            18.948904,
            46.903917
          ],
          [
            18.938975,
            46.891791
          ],
          [
            18.930919,
            46.877224
          ],
          [
            18.927501,
            46.865017
          ],
          [
            18.926036,
            46.835273
          ],
          [
            18.927501,
            46.827175
          ],
          [
            18.933116,
            46.820583
          ],
          [
            18.950613,
            46.807156
          ],
          [
            18.954356,
            46.803534
          ],
          [
            18.958425,
            46.800849
          ],
          [
            18.975352,
            46.784003
          ],
          [
            18.978526,
            46.779975
          ],
          [
            18.984793,
            46.775662
          ],
          [
            18.986827,
            46.765489
          ],
          [
            18.987559,
            46.753974
          ],
          [
            18.989024,
            46.745185
          ],
          [
            18.998953,
            46.723212
          ],
          [
            19.00172,
            46.708523
          ],
          [
            18.996349,
            46.694892
          ],
          [
            18.981619,
            46.676337
          ],
          [
            18.952891,
            46.656195
          ],
          [
            18.885265,
            46.635321
          ],
          [
            18.858165,
            46.614854
          ],
          [
            18.877208,
            46.591173
          ],
          [
            18.907644,
            46.531806
          ],
          [
            18.920177,
            46.498847
          ],
          [
            18.922781,
            46.468695
          ],
          [
            18.898936,
            46.414374
          ],
          [
            18.892263,
            46.378445
          ],
          [
            18.895518,
            46.362901
          ],
          [
            18.910085,
            46.342963
          ],
          [
            18.913341,
            46.330634
          ],
          [
            18.914968,
            46.195258
          ],
          [
            18.903575,
            46.173041
          ],
          [
            18.872325,
            46.183458
          ],
          [
            18.825206,
            46.141547
          ],
          [
            18.813406,
            46.126166
          ],
          [
            18.794119,
            46.116726
          ],
          [
            18.789806,
            46.111518
          ],
          [
            18.785167,
            46.11225
          ],
          [
            18.775157,
            46.102973
          ],
          [
            18.762462,
            46.087266
          ],
          [
            18.700369,
            46.044786
          ],
          [
            18.691661,
            46.0185
          ],
          [
            18.721609,
            45.984931
          ],
          [
            18.806163,
            45.923611
          ],
          [
            18.831472,
            45.895535
          ],
          [
            18.832449,
            45.891059
          ],
          [
            18.830577,
            45.879503
          ],
          [
            18.831472,
            45.875067
          ],
          [
            18.835216,
            45.873481
          ],
          [
            18.841319,
            45.873969
          ],
          [
            18.847423,
            45.873155
          ],
          [
            18.85198,
            45.868191
          ],
          [
            18.853933,
            45.859239
          ],
          [
            18.85198,
            45.830349
          ],
          [
            18.849864,
            45.82449
          ],
          [
            18.846202,
            45.820258
          ],
          [
            18.844493,
            45.815945
          ],
          [
            18.848155,
            45.809841
          ],
          [
            18.863536,
            45.798774
          ],
          [
            18.870616,
            45.790229
          ],
          [
            18.899669,
            45.765163
          ],
          [
            18.904307,
            45.750067
          ],
          [
            18.908458,
            45.719672
          ],
          [
            18.916759,
            45.706855
          ],
          [
            18.930431,
            45.699083
          ],
          [
            18.947683,
            45.692328
          ],
          [
            18.962087,
            45.683295
          ],
          [
            18.968028,
            45.668972
          ],
          [
            18.962413,
            45.660346
          ],
          [
            18.934825,
            45.633612
          ],
          [
            18.923839,
            45.627997
          ],
          [
            18.911876,
            45.619452
          ],
          [
            18.907725,
            45.600653
          ],
          [
            18.906505,
            45.581895
          ],
          [
            18.903087,
            45.57331
          ],
          [
            18.91155,
            45.568427
          ],
          [
            18.93157,
            45.545762
          ],
          [
            18.941335,
            45.539252
          ],
          [
            18.959646,
            45.539374
          ],
          [
            18.972667,
            45.546495
          ],
          [
            18.982677,
            45.554999
          ],
          [
            19.000173,
            45.561469
          ],
          [
            19.008718,
            45.565741
          ],
          [
            19.017589,
            45.567572
          ],
          [
            19.026622,
            45.562812
          ],
          [
            19.032725,
            45.554877
          ],
          [
            19.035899,
            45.54975
          ],
          [
            19.040294,
            45.545274
          ],
          [
            19.050548,
            45.539252
          ],
          [
            19.067312,
            45.533637
          ],
          [
            19.081798,
            45.53144
          ],
          [
            19.094493,
            45.526313
          ],
          [
            19.105724,
            45.511908
          ],
          [
            19.076589,
            45.491889
          ],
          [
            19.009044,
            45.498887
          ],
          [
            18.99586,
            45.474066
          ],
          [
            19.002452,
            45.455593
          ],
          [
            19.031016,
            45.43419
          ],
          [
            19.036794,
            45.422553
          ],
          [
            19.028087,
            45.412421
          ],
          [
            18.975352,
            45.395209
          ],
          [
            18.988292,
            45.379462
          ],
          [
            19.003184,
            45.3664
          ],
          [
            19.020518,
            45.357489
          ],
          [
            19.040212,
            45.354275
          ],
          [
            19.081554,
            45.354275
          ],
          [
            19.091319,
            45.350287
          ],
          [
            19.094737,
            45.340766
          ],
          [
            19.095714,
            45.329413
          ],
          [
            19.098318,
            45.320136
          ],
          [
            19.124278,
            45.298407
          ],
          [
            19.16155,
            45.285264
          ],
          [
            19.362722,
            45.248481
          ],
          [
            19.406749,
            45.248969
          ],
          [
            19.490896,
            45.264268
          ],
          [
            19.529552,
            45.266872
          ],
          [
            19.557628,
            45.255805
          ],
          [
            19.571707,
            45.236599
          ],
          [
            19.580496,
            45.23078
          ],
          [
            19.598562,
            45.227851
          ],
          [
            19.658132,
            45.234442
          ],
          [
            19.698497,
            45.24669
          ],
          [
            19.741954,
            45.245063
          ],
          [
            19.784923,
            45.237494
          ],
          [
            19.810802,
            45.227851
          ],
          [
            19.817068,
            45.231716
          ],
          [
            19.831716,
            45.238145
          ],
          [
            19.838145,
            45.242133
          ],
          [
            19.846609,
            45.250556
          ],
          [
            19.855642,
            45.265082
          ],
          [
            19.862478,
            45.272813
          ],
          [
            19.88087,
            45.282294
          ],
          [
            19.898611,
            45.279364
          ],
          [
            19.914317,
            45.268907
          ],
          [
            19.927501,
            45.255805
          ],
          [
            19.949392,
            45.218695
          ],
          [
            19.965587,
            45.198554
          ],
          [
            19.985606,
            45.189765
          ],
          [
            20.04241,
            45.177761
          ],
          [
            20.064708,
            45.175482
          ],
          [
            20.184988,
            45.185004
          ],
          [
            20.222423,
            45.175482
          ],
          [
            20.257009,
            45.156765
          ],
          [
            20.28948,
            45.13227
          ],
          [
            20.345876,
            45.073065
          ],
          [
            20.356944,
            45.034491
          ],
          [
            20.333263,
            45.010565
          ],
          [
            20.303966,
            44.993964
          ],
          [
            20.298106,
            44.977484
          ],
          [
            20.290701,
            44.977484
          ],
          [
            20.303233,
            44.954657
          ],
          [
            20.318858,
            44.934394
          ],
          [
            20.396902,
            44.864569
          ],
          [
            20.408458,
            44.857042
          ],
          [
            20.455089,
            44.840277
          ],
          [
            20.514171,
            44.836859
          ]
        ]
      }
    },
    {
      "type": "Feature",
      "properties": {
        "tip": "rkm",
        "rkm": 1290,
        "oznaka": "rkm 1290"
      },
      "geometry": {
        "type": "Point",
        "coordinates": [
          19.46783,
          45.260074
        ]
      }
    },
    {
      "type": "Feature",
      "properties": {
        "tip": "rkm",
        "rkm": 1300,
        "oznaka": "rkm 1300"
      },
      "geometry": {
        "type": "Point",
        "coordinates": [
          19.348581,
          45.251067
        ]
      }
    },
    {
      "type": "Feature",
      "properties": {
        "tip": "rkm",
        "rkm": 1310,
        "oznaka": "rkm 1310"
      },
      "geometry": {
        "type": "Point",
        "coordinates": [
          19.230738,
          45.272613
        ]
      }
    },
    {
      "type": "Feature",
      "properties": {
        "tip": "rkm",
        "rkm": 1320,
        "oznaka": "rkm 1320"
      },
      "geometry": {
        "type": "Point",
        "coordinates": [
          19.118745,
          45.303039
        ]
      }
    },
    {
      "type": "Feature",
      "properties": {
        "tip": "rkm",
        "rkm": 1330,
        "oznaka": "rkm 1330"
      },
      "geometry": {
        "type": "Point",
        "coordinates": [
          19.0463,
          45.354275
        ]
      }
    },
    {
      "type": "Feature",
      "properties": {
        "tip": "rkm",
        "rkm": 1340,
        "oznaka": "rkm 1340"
      },
      "geometry": {
        "type": "Point",
        "coordinates": [
          18.997565,
          45.402459
        ]
      }
    },
    {
      "type": "Feature",
      "properties": {
        "tip": "rkm",
        "rkm": 1350,
        "oznaka": "rkm 1350"
      },
      "geometry": {
        "type": "Point",
        "coordinates": [
          18.999481,
          45.463919
        ]
      }
    },
    {
      "type": "Feature",
      "properties": {
        "tip": "rkm",
        "rkm": 1360,
        "oznaka": "rkm 1360"
      },
      "geometry": {
        "type": "Point",
        "coordinates": [
          19.07749,
          45.492508
        ]
      }
    },
    {
      "type": "Feature",
      "properties": {
        "tip": "rkm",
        "rkm": 1370,
        "oznaka": "rkm 1370"
      },
      "geometry": {
        "type": "Point",
        "coordinates": [
          19.041904,
          45.544328
        ]
      }
    },
    {
      "type": "Feature",
      "properties": {
        "tip": "rkm",
        "rkm": 1380,
        "oznaka": "rkm 1380"
      },
      "geometry": {
        "type": "Point",
        "coordinates": [
          18.951079,
          45.539317
        ]
      }
    },
    {
      "type": "Feature",
      "properties": {
        "tip": "rkm",
        "rkm": 1390,
        "oznaka": "rkm 1390"
      },
      "geometry": {
        "type": "Point",
        "coordinates": [
          18.909341,
          45.607974
        ]
      }
    },
    {
      "type": "Feature",
      "properties": {
        "tip": "rkm",
        "rkm": 1400,
        "oznaka": "rkm 1400"
      },
      "geometry": {
        "type": "Point",
        "coordinates": [
          18.96398,
          45.678732
        ]
      }
    },
    {
      "type": "Feature",
      "properties": {
        "tip": "rkm",
        "rkm": 1410,
        "oznaka": "rkm 1410"
      },
      "geometry": {
        "type": "Point",
        "coordinates": [
          18.904757,
          45.746775
        ]
      }
    },
    {
      "type": "Feature",
      "properties": {
        "tip": "rkm",
        "rkm": 1420,
        "oznaka": "rkm 1420"
      },
      "geometry": {
        "type": "Point",
        "coordinates": [
          18.84557,
          45.818663
        ]
      }
    },
    {
      "type": "Feature",
      "properties": {
        "tip": "rkm",
        "rkm": 1430,
        "oznaka": "rkm 1430"
      },
      "geometry": {
        "type": "Point",
        "coordinates": [
          18.832142,
          45.892463
        ]
      }
    },
    {
      "type": "Feature",
      "properties": {
        "tip": "rkm",
        "rkm": 1440,
        "oznaka": "rkm 1440"
      },
      "geometry": {
        "type": "Point",
        "coordinates": [
          18.756948,
          45.959302
        ]
      }
    },
    {
      "type": "Feature",
      "properties": {
        "tip": "rkm",
        "rkm": 1450,
        "oznaka": "rkm 1450"
      },
      "geometry": {
        "type": "Point",
        "coordinates": [
          18.695114,
          46.028924
        ]
      }
    },
    {
      "type": "Feature",
      "properties": {
        "tip": "rkm",
        "rkm": 1500,
        "oznaka": "rkm 1500"
      },
      "geometry": {
        "type": "Point",
        "coordinates": [
          18.894784,
          46.366408
        ]
      }
    },
    {
      "type": "Feature",
      "properties": {
        "tip": "rkm",
        "rkm": 1550,
        "oznaka": "rkm 1550"
      },
      "geometry": {
        "type": "Point",
        "coordinates": [
          18.994965,
          46.732037
        ]
      }
    },
    {
      "type": "Feature",
      "properties": {
        "tip": "rkm",
        "rkm": 1600,
        "oznaka": "rkm 1600"
      },
      "geometry": {
        "type": "Point",
        "coordinates": [
          18.888394,
          47.113431
        ]
      }
    },
    {
      "type": "Feature",
      "properties": {
        "tip": "rkm",
        "rkm": 1650,
        "oznaka": "rkm 1650"
      },
      "geometry": {
        "type": "Point",
        "coordinates": [
          19.052542,
          47.500214
        ]
      }
    },
    {
      "type": "Feature",
      "properties": {
        "tip": "rkm",
        "rkm": 1700,
        "oznaka": "rkm 1700"
      },
      "geometry": {
        "type": "Point",
        "coordinates": [
          18.960817,
          47.807966
        ]
      }
    },
    {
      "type": "Feature",
      "properties": {
        "tip": "rkm",
        "rkm": 1750,
        "oznaka": "rkm 1750"
      },
      "geometry": {
        "type": "Point",
        "coordinates": [
          18.37699,
          47.77931
        ]
      }
    },
    {
      "type": "Feature",
      "properties": {
        "tip": "rkm",
        "rkm": 1800,
        "oznaka": "rkm 1800"
      },
      "geometry": {
        "type": "Point",
        "coordinates": [
          17.75428,
          47.763298
        ]
      }
    },
    {
      "type": "Feature",
      "properties": {
        "tip": "rkm",
        "rkm": 1850,
        "oznaka": "rkm 1850"
      },
      "geometry": {
        "type": "Point",
        "coordinates": [
          17.277921,
          48.004985
        ]
      }
    },
    {
      "type": "Feature",
      "properties": {
        "tip": "rkm",
        "rkm": 1900,
        "oznaka": "rkm 1900"
      },
      "geometry": {
        "type": "Point",
        "coordinates": [
          16.820752,
          48.133877
        ]
      }
    },
    {
      "type": "Feature",
      "properties": {
        "tip": "rkm",
        "rkm": 1950,
        "oznaka": "rkm 1950"
      },
      "geometry": {
        "type": "Point",
        "coordinates": [
          16.343133,
          48.342646
        ]
      }
    },
    {
      "type": "Feature",
      "properties": {
        "tip": "rkm",
        "rkm": 2000,
        "oznaka": "rkm 2000"
      },
      "geometry": {
        "type": "Point",
        "coordinates": [
          15.767789,
          48.403492
        ]
      }
    },
    {
      "type": "Feature",
      "properties": {
        "tip": "rkm",
        "rkm": 2050,
        "oznaka": "rkm 2050"
      },
      "geometry": {
        "type": "Point",
        "coordinates": [
          15.310657,
          48.241093
        ]
      }
    },
    {
      "type": "Feature",
      "properties": {
        "tip": "rkm",
        "rkm": 2100,
        "oznaka": "rkm 2100"
      },
      "geometry": {
        "type": "Point",
        "coordinates": [
          14.754629,
          48.195164
        ]
      }
    },
    {
      "type": "Feature",
      "properties": {
        "tip": "rkm",
        "rkm": 2150,
        "oznaka": "rkm 2150"
      },
      "geometry": {
        "type": "Point",
        "coordinates": [
          14.218011,
          48.322022
        ]
      }
    },
    {
      "type": "Feature",
      "properties": {
        "tip": "rkm",
        "rkm": 2200,
        "oznaka": "rkm 2200"
      },
      "geometry": {
        "type": "Point",
        "coordinates": [
          13.737593,
          48.513664
        ]
      }
    },
    {
      "type": "Feature",
      "properties": {
        "tip": "rkm",
        "rkm": 2250,
        "oznaka": "rkm 2250"
      },
      "geometry": {
        "type": "Point",
        "coordinates": [
          13.159046,
          48.653934
        ]
      }
    },
    {
      "type": "Feature",
      "properties": {
        "tip": "rkm",
        "rkm": 2300,
        "oznaka": "rkm 2300"
      },
      "geometry": {
        "type": "Point",
        "coordinates": [
          12.775417,
          48.835149
        ]
      }
    },
    {
      "type": "Feature",
      "properties": {
        "tip": "rkm",
        "rkm": 2350,
        "oznaka": "rkm 2350"
      },
      "geometry": {
        "type": "Point",
        "coordinates": [
          12.5088,
          48.927598
        ]
      }
    }
  ]
}