{
  "type": "FeatureCollection",
  "name": "rijeka-mura",
  "crs": {
    "type": "name",
    "properties": {
      "name": "urn:ogc:def:crs:OGC:1.3:CRS84"
    }
  },
  "features": [
    {
      "type": "Feature",
      "properties": {
        "tip": "vodotok",
        "naziv": "Mura",
        "sifra": "rijeka-mura",
        "poredak": 1
      },
      "geometry": {
        "type": "LineString",
        "coordinates": [
          [
            15.442393,
            47.051581
          ],
          [
            15.446056,
            47.040066
          ],
          [
            15.46339,
            47.022895
          ],
          [
            15.470714,
            47.0008
          ],
          [
            15.493419,
            46.974718
          ],
          [
            15.501475,
            46.957465
          ],
          [
            15.501231,
            46.939236
          ],
          [
            15.498953,
            46.918809
          ],
          [
            15.501964,
            46.902289
          ],
          [
            15.517589,
            46.895453
          ],
          [
            15.529796,
            46.887234
          ],
          [
            15.569753,
            46.834581
          ],
          [
            15.582774,
            46.810858
          ],
          [
            15.580333,
            46.793769
          ],
          [
            15.574148,
            46.778103
          ],
          [
            15.575938,
            46.758857
          ],
          [
            15.587657,
            46.742865
          ],
          [
            15.60613,
            46.730007
          ],
          [
            15.651622,
            46.711046
          ],
          [
            15.728038,
            46.703233
          ],
          [
            15.754649,
            46.704291
          ],
          [
            15.822439,
            46.72309
          ],
          [
            15.850271,
            46.724718
          ],
          [
            15.878103,
            46.720974
          ],
          [
            15.945811,
            46.697374
          ],
          [
            15.986501,
            46.69245
          ],
          [
            15.997325,
            46.687201
          ],
          [
            16.016287,
            46.670925
          ],
          [
            16.027843,
            46.665066
          ],
          [
            16.042003,
            46.662665
          ],
          [
            16.067068,
            46.644355
          ],
          [
            16.120372,
            46.619086
          ],
          [
            16.20338,
            46.591905
          ],
          [
            16.216726,
            46.584093
          ],
          [
            16.25408,
            46.547431
          ],
          [
            16.267996,
            46.53974
          ],
          [
            16.271739,
            46.542751
          ],
          [
            16.274587,
            46.544501
          ],
          [
            16.281668,
            46.547227
          ],
          [
            16.292166,
            46.534735
          ],
          [
            16.310232,
            46.531277
          ],
          [
            16.329519,
            46.535712
          ],
          [
            16.343679,
            46.547227
          ],
          [
            16.351085,
            46.53974
          ],
          [
            16.357432,
            46.547227
          ],
          [
            16.368907,
            46.540839
          ],
          [
            16.381602,
            46.539618
          ],
          [
            16.39446,
            46.540351
          ],
          [
            16.405772,
            46.53974
          ],
          [
            16.414724,
            46.535834
          ],
          [
            16.43157,
            46.523464
          ],
          [
            16.439871,
            46.519314
          ],
          [
            16.448497,
            46.518622
          ],
          [
            16.470225,
            46.520535
          ],
          [
            16.480886,
            46.519314
          ],
          [
            16.490652,
            46.515408
          ],
          [
            16.520518,
            46.498847
          ],
          [
            16.515066,
            46.498847
          ],
          [
            16.563731,
            46.48017
          ],
          [
            16.577078,
            46.470893
          ],
          [
            16.583263,
            46.470893
          ],
          [
            16.587657,
            46.479804
          ],
          [
            16.593923,
            46.483222
          ],
          [
            16.601573,
            46.482367
          ],
          [
            16.610606,
            46.478339
          ],
          [
            16.637218,
            46.474718
          ],
          [
            16.658702,
            46.464423
          ],
          [
            16.677013,
            46.44892
          ],
          [
            16.693126,
            46.429877
          ],
          [
            16.711925,
            46.412909
          ],
          [
            16.742361,
            46.399848
          ],
          [
            16.754568,
            46.382148
          ],
          [
            16.761404,
            46.382148
          ],
          [
            16.768809,
            46.39643
          ],
          [
            16.776052,
            46.393175
          ],
          [
            16.802989,
            46.388983
          ],
          [
            16.807384,
            46.387559
          ],
          [
            16.811778,
            46.385281
          ],
          [
            16.816091,
            46.38227
          ],
          [
            16.820486,
            46.378445
          ],
          [
            16.827078,
            46.374335
          ],
          [
            16.829763,
            46.37755
          ],
          [
            16.83196,
            46.382148
          ],
          [
            16.837169,
            46.382148
          ],
          [
            16.850027,
            46.373318
          ],
          [
            16.865001,
            46.359402
          ],
          [
            16.874522,
            46.343126
          ],
          [
            16.871267,
            46.327501
          ],
          [
            16.87794,
            46.314073
          ]
        ]
      }
    },
    {
      "type": "Feature",
      "properties": {
        "tip": "rkm",
        "rkm": 0,
        "oznaka": "rkm 0"
      },
      "geometry": {
        "type": "Point",
        "coordinates": [
          16.87794,
          46.314073
        ]
      }
    },
    {
      "type": "Feature",
      "properties": {
        "tip": "rkm",
        "rkm": 10,
        "oznaka": "rkm 10"
      },
      "geometry": {
        "type": "Point",
        "coordinates": [
          16.834997,
          46.382148
        ]
      }
    },
    {
      "type": "Feature",
      "properties": {
        "tip": "rkm",
        "rkm": 20,
        "oznaka": "rkm 20"
      },
      "geometry": {
        "type": "Point",
        "coordinates": [
          16.753971,
          46.383013
        ]
      }
    },
    {
      "type": "Feature",
      "properties": {
        "tip": "rkm",
        "rkm": 30,
        "oznaka": "rkm 30"
      },
      "geometry": {
        "type": "Point",
        "coordinates": [
          16.682768,
          46.442118
        ]
      }
    },
    {
      "type": "Feature",
      "properties": {
        "tip": "rkm",
        "rkm": 40,
        "oznaka": "rkm 40"
      },
      "geometry": {
        "type": "Point",
        "coordinates": [
          16.592137,
          46.482248
        ]
      }
    },
    {
      "type": "Feature",
      "properties": {
        "tip": "rkm",
        "rkm": 50,
        "oznaka": "rkm 50"
      },
      "geometry": {
        "type": "Point",
        "coordinates": [
          16.513611,
          46.502677
        ]
      }
    },
    {
      "type": "Feature",
      "properties": {
        "tip": "rkm",
        "rkm": 60,
        "oznaka": "rkm 60"
      },
      "geometry": {
        "type": "Point",
        "coordinates": [
          16.416394,
          46.534608
        ]
      }
    },
    {
      "type": "Feature",
      "properties": {
        "tip": "rkm",
        "rkm": 70,
        "oznaka": "rkm 70"
      },
      "geometry": {
        "type": "Point",
        "coordinates": [
          16.327512,
          46.53525
        ]
      }
    },
    {
      "type": "Feature",
      "properties": {
        "tip": "rkm",
        "rkm": 80,
        "oznaka": "rkm 80"
      },
      "geometry": {
        "type": "Point",
        "coordinates": [
          16.24192,
          46.559365
        ]
      }
    },
    {
      "type": "Feature",
      "properties": {
        "tip": "rkm",
        "rkm": 90,
        "oznaka": "rkm 90"
      },
      "geometry": {
        "type": "Point",
        "coordinates": [
          16.155232,
          46.607671
        ]
      }
    },
    {
      "type": "Feature",
      "properties": {
        "tip": "rkm",
        "rkm": 100,
        "oznaka": "rkm 100"
      },
      "geometry": {
        "type": "Point",
        "coordinates": [
          16.059213,
          46.650093
        ]
      }
    },
    {
      "type": "Feature",
      "properties": {
        "tip": "rkm",
        "rkm": 110,
        "oznaka": "rkm 110"
      },
      "geometry": {
        "type": "Point",
        "coordinates": [
          15.969512,
          46.694506
        ]
      }
    }
  ]
}